[Satellite]
VERSION=1.1
NAME=UKUBE-1
NICKNAME=UKUBE-1
TLE1=1 40074U 14037F   15055.47262559  .00002551  00000-0  33175-3 0  9991
TLE2=2 40074  98.3708 122.6560 0003888 246.1623 113.9175 14.81612738 34145
